HELIOS 1B               
1 25977U 99064A   21108.49593012  .00000067  00000-0  15485-4 0  9993
2 25977  98.3126 280.6649 0002553  87.2624 272.8880 14.82547470420317
TERRA                   
1 25994U 99068A   21108.56248685  .00000078  00000-0  27256-4 0  9998
2 25994  98.1785 184.0741 0001280 100.8517   2.7114 14.57124040134626
SL-16 R/B               
1 26070U 00006B   21108.59870804 -.00000192  00000-0 -73735-4 0  9997
2 26070  71.0015 252.0202 0015897  12.2938 347.8569 14.15471261 95816
MTI                     
1 26102U 00014A   21108.47723842  .00012657  00000-0  15820-3 0  9995
2 26102  97.4699  11.9150 0006650 162.7826 197.4104 15.59954299171994
TITAN 4B R/B            
1 26474U 00047B   21108.58873846  .00000215  00000-0  29390-4 0  9990
2 26474  67.9934 315.6887 0059542 225.4677 134.1594 14.96124492124881
ENVISAT                 
1 27386U 02009A   21108.61800301  .00000028  00000-0  22637-4 0  9992
2 27386  98.1481 105.7350 0001373  87.2317  24.4395 14.38021333  2403
IDEFIX & ARIANE 42P R/B 
1 27422U 02021B   21108.46509552  .00000033  00000-0  29231-4 0  9997
2 27422  98.3968  63.6107 0013261  53.3353 306.9046 14.29315227988739
AQUA                    
1 27424U 02022A   21108.59627164  .00000136  00000-0  40313-4 0  9992
2 27424  98.2052  50.7931 0002350  96.3888  76.9158 14.57113631  8314
CZ-4B R/B               
1 27432U 02024C   21108.58679015 -.00000021  00000-0  13208-4 0  9991
2 27432  99.0889 121.9828 0051030  36.6376  70.5194 14.14106876976774
MIDORI II (ADEOS-II)    
1 27597U 02056A   21108.58590895  .00000047  00000-0  36706-4 0  9991
2 27597  98.5595  55.1131 0001478 123.8490 236.2832 14.27493559955347
H-2A R/B                
1 27601U 02056E   21108.60475529 -.00000044  00000-0 -14109-5 0  9999
2 27601  98.1952 134.1452 0073448  88.4802  21.7359 14.31990680958367
CZ-4B R/B               
1 28059U 03049C   21108.53629472  .00000049  00000-0  23631-4 0  9992
2 28059  98.4932  34.5733 0048957 286.4687  73.1132 14.52645581927129
CZ-2C R/B               
1 28222U 04012C   21108.50318733  .00000930  00000-0  58619-4 0  9990
2 28222  97.7222  78.7309 0048240  67.1946  47.6186 15.10804022932045
SL-16 R/B               
1 28353U 04021B   21108.48021517 -.00000065  00000-0 -93667-5 0  9997
2 28353  71.0044  19.5931 0007157 244.8062 115.2319 14.14247940870264
CZ-4B R/B               
1 28415U 04035C   21108.54652930  .00000472  00000-0  34764-4 0  9999
2 28415  97.5719 152.0674 0052155  33.3349 327.1144 15.07079851909584
CZ-2C R/B               
1 28480U 04046B   21108.56702198  .00000010  00000-0  18644-4 0  9994
2 28480  98.0539 125.3906 0142739  41.7213  67.4470 14.25749516853893
ARIANE 5 R/B            
1 28499U 04049H   21108.53591619  .00000084  00000-0  17732-4 0  9996
2 28499  98.0632 217.4893 0092180   8.2003   2.5333 14.80110390881223
CZ-2D R/B               
1 28738U 05024B   21108.56616969  .00000590  00000-0  37582-4 0  9992
2 28738  97.3650 126.7120 0011118 201.6022 158.4741 15.12350433867518
SUZAKU (ASTRO-EII)      
1 28773U 05025A   21108.54684523  .00001697  00000-0  76500-4 0  9993
2 28773  31.3807 191.9234 0004492  39.2123 320.8850 15.18278157870353
ALOS (DAICHI)           
1 28931U 06002A   21108.50095407  .00000135  00000-0  35020-4 0  9996
2 28931  97.8819  85.8839 0000920 112.2552 247.8741 14.62823960812293
H-2A R/B                
1 28932U 06002B   21108.59934759  .00000857  00000-0  83644-4 0  9994
2 28932  98.3312 122.1068 0089250  44.0385  68.4955 14.92510657826654
AKARI (ASTRO-F)         
1 28939U 06005A   21108.54258120  .00006470  00000-0  16206-3 0  9996
2 28939  98.2481 124.6311 0087408 336.4085  23.3158 15.36596421827707
RESURS-DK 1             
1 29228U 06021A   21108.43933993  .00000136  00000-0  17516-4 0  9991
2 29228  69.9339 131.5199 0005881 321.1287  38.9450 15.02673731818538
GENESIS 1               
1 29252U 06029A   21108.49893501  .00001177  00000-0  65773-4 0  9996
2 29252  64.5231  23.5562 0037628 331.2432  28.6616 15.18590228814418
CZ-4B R/B               
1 29507U 06046C   21108.55341849  .00001178  00000-0  95715-4 0  9998
2 29507  97.7280 134.7554 0046617 216.9674 142.8335 15.00775147791129
CZ-2C R/B               
1 31114U 07010B   21108.55111322  .00000001  00000-0  18693-4 0  9992
2 31114  98.2363 306.4660 0060926  97.4150 263.3956 14.19356414726284
COSMO-SKYMED 1          
1 31598U 07023A   21108.55788042  .00000284  00000-0  42281-4 0  9994
2 31598  97.8896 293.2991 0001546  91.0883 269.0508 14.82157743750021
GENESIS 2               
1 31789U 07028A   21108.29711658  .00000573  00000-0  38309-4 0  9998
2 31789  64.5056  66.4866 0016018 205.2096 154.8247 15.17717960761405
COSMOS 2428             
1 31792U 07029A   21108.41396850  .00000168  00000-0  11736-3 0  9994
2 31792  70.8954 352.1568 0008728 307.1817  52.8506 14.12249858711839
SL-16 R/B               
1 31793U 07029B   21108.38546567  .00000319  00000-0  19128-3 0  9994
2 31793  70.9760 325.8070 0002037 254.1472 278.8654 14.14444969712776
KORONAS-FOTON           
1 33504U 09003A   21108.55494505  .00000967  00000-0  48656-4 0  9991
2 33504  82.4390 279.1705 0017667 306.1341  53.8256 15.15938776673590
H-2A R/B                
1 38341U 12025E   21108.46024617  .00000160  00000-0  26272-4 0  9991
2 38341  98.5268 289.8435 0054781 333.4075  26.4329 14.84204306482606
CUSAT 2 & FALCON 9 R/B  
1 39271U 13055G   21108.56770530  .00007393  00000-0  17438-3 0  9999
2 39271  80.9630 297.9126 0572275 330.2785  26.6984 14.51912590394943
SL-4 R/B                
1 39679U 14021B   21108.50515974  .00000696  00000-0  51012-4 0  9994
2 39679  51.6156 131.3308 0169942 283.2585  74.9480 15.06885526385018
ALOS-2                  
1 39766U 14029A   21108.53530996 -.00000442  00000-0 -52325-4 0  9992
2 39766  97.9192 206.7566 0001637  92.8601 267.2803 14.79466549372808
CZ-2C R/B               
1 40306U 14071B   21108.59087057  .00008075  00000-0  15692-3 0  9995
2 40306  97.3654  65.0114 0015954 128.0726 232.1966 15.47754608360999
SL-27 R/B               
1 40354U 14084B   21108.55924208  .00001386  00000-0  34181-4 0  9999
2 40354  74.7354 116.5755 0035960 153.8270 206.4771 15.40964761355112
YAOGAN 29               
1 41038U 15069A   21108.45937712  .00000015  00000-0  88872-5 0  9991
2 41038  98.0367 102.3736 0001660  48.4028 311.7326 14.80497292291407
ASTRO-H (HITOMI)        
1 41337U 16012A   21108.56220084  .00000401  00000-0  25469-4 0  9992
2 41337  31.0048 235.0635 0012334 207.0975 152.9016 14.98820018283315
HXMT (HUIYAN)           
1 42758U 17034A   21108.55278541  .00000413  00000-0  39136-4 0  9994
2 42758  43.0171 161.9066 0008086 149.4770 316.3327 15.09140810211960
CZ-2C R/B               
1 43521U 18054D   21108.43827901  .00001030  00000-0  57003-4 0  9992
2 43521  35.1532  99.8664 0082673 288.3196  70.8539 15.11417326155319
AEOLUS                  
1 43600U 18066A   21108.26777947  .00044250  00000-0  17265-3 0  9994
2 43600  96.7193 116.0349 0007278  93.8944 266.3161 15.86918608153708
SAOCOM 1A               
1 43641U 18076A   21108.49880950 -.00000881  00000-0 -10411-3 0  9994
2 43641  97.8903 296.2805 0001521  76.4583 283.6806 14.82145773136780
CREW DRAGON DEMO-1 DEB  
1 44064U 19011B   21108.51274989  .00103861  00000-0  44246-3 0  9999
2 44064  51.6234 191.4959 0002663  12.0385 348.0681 15.84420615120880
SAOCOM 1B               
1 46265U 20059A   21108.53001643  .00000032  00000-0  10533-4 0  9994
2 46265  97.8880 295.3754 0001514  78.8449 281.2938 14.82152216 34182
CZ-2F R/B               
1 46390U 20063B   21108.20502428  .00102812  15306-4  25156-3 0  9993
2 46390  50.1989 291.4302 0009921 227.8395 132.1751 15.95906657 35825
2020-063G               
1 46395U 20063G   21108.55287753  .00032968  00000-0  14137-3 0  9999
2 46395  50.2038 297.1532 0009543 207.6632 152.3845 15.84673351 35776
